{
"type": "FeatureCollection",
"name": "points",
"features": [
{"type":"Feature","properties":{"osm_id":"355114301","name":"Station 4","address":null,"place":null,"other_tags":"\"addr:city\"=>\"Cebu City\",\"addr:postcode\"=>\"6000\",\"addr:street\"=>\"Juan Luna Avenue\",\"alt_name\"=>\"Mabolo Station\",\"amenity\"=>\"police\",\"contributor:ph\"=>\"cfbate\",\"opening_hours\"=>\"24/7\",\"source:ph\"=>\"cfbate\""},"geometry":{"type":"Point","coordinates":[123.9157072,10.3125796]}},
{"type":"Feature","properties":{"osm_id":"413986555","name":"Mabolo Fire Sub Station","address":null,"place":null,"other_tags":"\"addr:city\"=>\"Cebu City\",\"addr:postcode\"=>\"6000\",\"addr:street\"=>\"Juan Luna Avenue\",\"amenity\"=>\"fire_station\",\"ph:contributor\"=>\"cfbate\",\"phone\"=>\"+63 32 233 1510\""},"geometry":{"type":"Point","coordinates":[123.9158122,10.3123991]}},
{"type":"Feature","properties":{"osm_id":"3684253277","name":"Guadalupe Fire Sub Station","address":null,"place":null,"other_tags":"\"addr:city\"=>\"Cebu\",\"addr:postcode\"=>\"6000\",\"addr:street\"=>\"Vicente Rama Avenue\",\"amenity\"=>\"fire_station\",\"phone\"=>\"+63 32 253 9474\""},"geometry":{"type":"Point","coordinates":[123.8840279,10.3225897]}},
{"type":"Feature","properties":{"osm_id":"4118002090","name":"Metro Cebu Kidney Dialysis Center","address":null,"place":null,"other_tags":"\"addr:housename\"=>\"Old PRC Building\",\"addr:street\"=>\"Vicente Rama Avenue\",\"amenity\"=>\"clinic\",\"internet_access\"=>\"wlan\",\"opening_hours\"=>\"Mo-Sa 06:00-14:00\""},"geometry":{"type":"Point","coordinates":[123.8851477,10.3175148]}},
{"type":"Feature","properties":{"osm_id":"4122422390","name":"Fortune Care Clinic","address":null,"place":null,"other_tags":"\"addr:city\"=>\"Cebu City\",\"addr:postcode\"=>\"6000\",\"addr:street\"=>\"Osmeña Boulevard\",\"amenity\"=>\"clinic\",\"healthcare\"=>\"clinic\""},"geometry":{"type":"Point","coordinates":[123.8972113,10.2989044]}},
{"type":"Feature","properties":{"osm_id":"4224610889","name":null,"address":null,"place":null,"other_tags":"\"amenity\"=>\"shelter\",\"internet_access\"=>\"wlan\""},"geometry":{"type":"Point","coordinates":[123.8735188,10.2985105]}},
{"type":"Feature","properties":{"osm_id":"4295550686","name":"Police Station 9","address":null,"place":null,"other_tags":"\"addr:street\"=>\"Vicente Rama Avenue\",\"addr:village\"=>\"Guadalupe\",\"amenity\"=>\"police\",\"opening_hours\"=>\"24/7\",\"phone\"=>\"+63 32 479 9415\""},"geometry":{"type":"Point","coordinates":[123.8849442,10.3192914]}},
{"type":"Feature","properties":{"osm_id":"4340933671","name":"Lions Friendship Shed","address":null,"place":null,"other_tags":"\"amenity\"=>\"shelter\""},"geometry":{"type":"Point","coordinates":[123.9011793,10.3115767]}},
{"type":"Feature","properties":{"osm_id":"4441554193","name":"Dr. Wilfredo Ypil Clinic","address":null,"place":null,"other_tags":"\"addr:city\"=>\"Cebu\",\"addr:postcode\"=>\"6000\",\"addr:street\"=>\"F. Ramos Street\",\"amenity\"=>\"doctors\",\"name:en\"=>\"Dr. Wilfredo Ypil Clinic\""},"geometry":{"type":"Point","coordinates":[123.8962955,10.3075643]}},
{"type":"Feature","properties":{"osm_id":"4557994389","name":"Camp Lapu-Lapu Army Station Hospital","address":null,"place":null,"other_tags":"\"access\"=>\"no\",\"amenity\"=>\"hospital\""},"geometry":{"type":"Point","coordinates":[123.9033159,10.3374922]}},
{"type":"Feature","properties":{"osm_id":"4634282011","name":"Barangay Basak San Nicolas Fire Station","address":null,"place":null,"other_tags":"\"addr:street\"=>\"L. Gabuya Street\",\"amenity\"=>\"fire_station\""},"geometry":{"type":"Point","coordinates":[123.8704696,10.2861537]}},
{"type":"Feature","properties":{"osm_id":"4823446221","name":null,"address":null,"place":null,"other_tags":"\"amenity\"=>\"shelter\",\"internet_access\"=>\"wlan\""},"geometry":{"type":"Point","coordinates":[123.8663042,10.3045078]}},
{"type":"Feature","properties":{"osm_id":"4995905222","name":null,"address":null,"place":null,"other_tags":"\"amenity\"=>\"shelter\",\"internet_access\"=>\"wlan\""},"geometry":{"type":"Point","coordinates":[123.9026839,10.3304257]}},
{"type":"Feature","properties":{"osm_id":"5028281421","name":null,"address":null,"place":null,"other_tags":"\"amenity\"=>\"shelter\",\"internet_access\"=>\"wlan\""},"geometry":{"type":"Point","coordinates":[123.9066949,10.3125096]}},
{"type":"Feature","properties":{"osm_id":"5246796589","name":null,"address":null,"place":null,"other_tags":"\"amenity\"=>\"shelter\",\"shelter_type\"=>\"public_transport\""},"geometry":{"type":"Point","coordinates":[123.9098531,10.3537774]}},
{"type":"Feature","properties":{"osm_id":"5507339621","name":"Chiropractic Clinic","address":null,"place":null,"other_tags":"\"addr:housename\"=>\"Ayala Center Cebu\",\"addr:unit\"=>\"176\",\"amenity\"=>\"clinic\""},"geometry":{"type":"Point","coordinates":[123.9051556,10.3181901]}},
{"type":"Feature","properties":{"osm_id":"5519778825","name":"Kaiser Mecial Clinic","address":null,"place":null,"other_tags":"\"amenity\"=>\"clinic\",\"healthcare\"=>\"clinic\""},"geometry":{"type":"Point","coordinates":[123.8807426,10.2804974]}},
{"type":"Feature","properties":{"osm_id":"5519793521","name":"The One Family Clinic & Laboratory","address":null,"place":null,"other_tags":"\"addr:housename\"=>\"One Pavillion Mall\",\"amenity\"=>\"clinic\",\"healthcare\"=>\"clinic\""},"geometry":{"type":"Point","coordinates":[123.8843725,10.3150927]}},
{"type":"Feature","properties":{"osm_id":"5846373352","name":"Dr. Alicia Yuipco- Delfin Clinic","address":null,"place":null,"other_tags":"\"amenity\"=>\"clinic\",\"healthcare\"=>\"clinic\""},"geometry":{"type":"Point","coordinates":[123.8714657,10.2854585]}},
{"type":"Feature","properties":{"osm_id":"6357875073","name":null,"address":null,"place":null,"other_tags":"\"amenity\"=>\"clinic\""},"geometry":{"type":"Point","coordinates":[123.8803815,10.3255992]}},
{"type":"Feature","properties":{"osm_id":"6383417692","name":null,"address":null,"place":null,"other_tags":"\"amenity\"=>\"shelter\""},"geometry":{"type":"Point","coordinates":[123.8798784,10.3885675]}},
{"type":"Feature","properties":{"osm_id":"7170935585","name":"Nuclear Medicine - Perpetual Soccur Hospital","address":null,"place":null,"other_tags":"\"addr:postcode\"=>\"6000\",\"addr:street\"=>\"PSH Road\",\"amenity\"=>\"clinic\",\"opening_hours\"=>\"24/7\""},"geometry":{"type":"Point","coordinates":[123.9005112,10.3148458]}},
{"type":"Feature","properties":{"osm_id":"7173788586","name":"Cebu Urologic Institute - Perpetual Succour Hospital","address":null,"place":null,"other_tags":"\"addr:postcode\"=>\"6000\",\"addr:street\"=>\"PSH Road\",\"amenity\"=>\"clinic\",\"opening_hours\"=>\"Mo-Fr 10:00-18:00; Sa 10:00-12:00\""},"geometry":{"type":"Point","coordinates":[123.9005891,10.3148173]}},
{"type":"Feature","properties":{"osm_id":"7242908857","name":"Police Station 10","address":null,"place":null,"other_tags":"\"addr:street\"=>\"Katipunan Street\",\"amenity\"=>\"police\",\"operator\"=>\"Cebu City Police Office, Philippine National Police\""},"geometry":{"type":"Point","coordinates":[123.880987,10.2991508]}},
{"type":"Feature","properties":{"osm_id":"7389981760","name":"Bayanihan Cebu Field Center - SHS","address":null,"place":null,"other_tags":"\"amenity\"=>\"hospital\",\"description\"=>\"Field Center for housing COVID-19 patients that do not require immediate hospital confinement.\n\nPlace must be deleted from map after decommissioning of Field Center.\",\"healthcare\"=>\"hospital\""},"geometry":{"type":"Point","coordinates":[123.9047573,10.3100161]}},
{"type":"Feature","properties":{"osm_id":"7815546585","name":"Glory Reborn Birthing Center","address":null,"place":null,"other_tags":"\"amenity\"=>\"clinic\""},"geometry":{"type":"Point","coordinates":[123.8703078,10.287983]}},
{"type":"Feature","properties":{"osm_id":"7843264785","name":"St Peter - Paul Medical Clinic","address":null,"place":null,"other_tags":"\"addr:city\"=>\"Cebu\",\"addr:street\"=>\"Colon Street\",\"amenity\"=>\"clinic\",\"healthcare\"=>\"clinic\""},"geometry":{"type":"Point","coordinates":[123.9025495,10.297792]}},
{"type":"Feature","properties":{"osm_id":"8651853173","name":null,"address":null,"place":null,"other_tags":"\"amenity\"=>\"police\""},"geometry":{"type":"Point","coordinates":[123.9084971,10.3308715]}},
{"type":"Feature","properties":{"osm_id":"8651853178","name":null,"address":null,"place":null,"other_tags":"\"amenity\"=>\"police\""},"geometry":{"type":"Point","coordinates":[123.9061569,10.3272904]}},
{"type":"Feature","properties":{"osm_id":"8689657237","name":"Labangon Station","address":null,"place":null,"other_tags":"\"addr:place\"=>\"Labangon\",\"addr:street\"=>\"Katipunan Street\",\"amenity\"=>\"fire_station\",\"operator:type\"=>\"community\""},"geometry":{"type":"Point","coordinates":[123.8811828,10.2991016]}},
{"type":"Feature","properties":{"osm_id":"9395626417","name":"Supercare Cebu","address":null,"place":null,"other_tags":"\"addr:postcode\"=>\"6000\",\"addr:street\"=>\"M. Velez Street\",\"amenity\"=>\"clinic\""},"geometry":{"type":"Point","coordinates":[123.8883113,10.3166661]}},
{"type":"Feature","properties":{"osm_id":"9473335017","name":"Supercare Cebu","address":null,"place":null,"other_tags":"\"amenity\"=>\"hospital\""},"geometry":{"type":"Point","coordinates":[123.888146,10.3166507]}},
{"type":"Feature","properties":{"osm_id":"9840875994","name":"Cebu Business Park Fire Substation","address":null,"place":null,"other_tags":"\"addr:city\"=>\"Cebu\",\"addr:street\"=>\"Leyte Loop\",\"amenity\"=>\"fire_station\",\"fire_station:type\"=>\"local_station\""},"geometry":{"type":"Point","coordinates":[123.9083317,10.3139372]}},
{"type":"Feature","properties":{"osm_id":"9840948865","name":"Mabolo Police Station 4","address":null,"place":null,"other_tags":"\"amenity\"=>\"police\""},"geometry":{"type":"Point","coordinates":[123.9083259,10.3138244]}},
{"type":"Feature","properties":{"osm_id":"10100453079","name":null,"address":null,"place":null,"other_tags":"\"amenity\"=>\"shelter\""},"geometry":{"type":"Point","coordinates":[123.8401503,10.330981]}},
{"type":"Feature","properties":{"osm_id":"11555599369","name":"City Doctors Med Clinic And Pharmacy","address":null,"place":null,"other_tags":"\"amenity\"=>\"clinic\",\"healthcare\"=>\"clinic\""},"geometry":{"type":"Point","coordinates":[123.8795033,10.2975699]}},
{"type":"Feature","properties":{"osm_id":"11806041626","name":null,"address":null,"place":null,"other_tags":"\"amenity\"=>\"shelter\",\"mapillary\"=>\"179638890684807\",\"shelter_type\"=>\"public_transport\""},"geometry":{"type":"Point","coordinates":[123.9101976,10.3315226]}},
{"type":"Feature","properties":{"osm_id":"11806041627","name":null,"address":null,"place":null,"other_tags":"\"amenity\"=>\"shelter\",\"mapillary\"=>\"179638890684807\",\"shelter_type\"=>\"public_transport\""},"geometry":{"type":"Point","coordinates":[123.9101198,10.3317963]}},
{"type":"Feature","properties":{"osm_id":"11806041663","name":null,"address":null,"place":null,"other_tags":"\"amenity\"=>\"shelter\",\"mapillary\"=>\"179638890684807\",\"shelter_type\"=>\"public_transport\""},"geometry":{"type":"Point","coordinates":[123.9098503,10.3310139]}},
{"type":"Feature","properties":{"osm_id":"11875317495","name":"Kevlo Skin Clinic","address":null,"place":null,"other_tags":"\"amenity\"=>\"clinic\",\"healthcare\"=>\"clinic\""},"geometry":{"type":"Point","coordinates":[123.878107,10.3009639]}},
{"type":"Feature","properties":{"osm_id":"11879062895","name":"Int'l Acupuncture and medical Clinic","address":null,"place":null,"other_tags":"\"amenity\"=>\"clinic\""},"geometry":{"type":"Point","coordinates":[123.9121982,10.3441351]}},
{"type":"Feature","properties":{"osm_id":"12498700428","name":"Police outpost","address":null,"place":null,"other_tags":"\"amenity\"=>\"police\",\"operator\"=>\"Philippine National Police\",\"operator:short\"=>\"PNP\",\"operator:wikidata\"=>\"Q963772\""},"geometry":{"type":"Point","coordinates":[123.8981345,10.3309735]}},
{"type":"Feature","properties":{"osm_id":"12876599202","name":"Alpha diagnostic center","address":null,"place":null,"other_tags":"\"amenity\"=>\"clinic\""},"geometry":{"type":"Point","coordinates":[123.8984341,10.3048701]}},
{"type":"Feature","properties":{"osm_id":"13033223830","name":"Cebu Filipino-Chinese Volunteers Fire Brigade","address":null,"place":null,"other_tags":"\"addr:city\"=>\"Cebu\",\"addr:postcode\"=>\"6000\",\"addr:quarter\"=>\"Capitol Site\",\"addr:street\"=>\"J. Llorente Street\",\"amenity\"=>\"fire_station\",\"operator:type\"=>\"ngo\",\"phone\"=>\"+63 32 254 0200\""},"geometry":{"type":"Point","coordinates":[123.8891794,10.3105553]}},
{"type":"Feature","properties":{"osm_id":"13036674817","name":"Pahina Central Fire Sub-station","address":null,"place":null,"other_tags":"\"amenity\"=>\"fire_station\",\"emergency:phone\"=>\"63322345867\""},"geometry":{"type":"Point","coordinates":[123.8921712,10.2980275]}},
{"type":"Feature","properties":{"osm_id":"13052346088","name":null,"address":null,"place":null,"other_tags":"\"amenity\"=>\"shelter\",\"shelter_type\"=>\"sun_shelter\""},"geometry":{"type":"Point","coordinates":[123.8529361,10.3040961]}},
{"type":"Feature","properties":{"osm_id":"13508203456","name":"Skin Doctors","address":null,"place":null,"other_tags":"\"amenity\"=>\"clinic\",\"level\"=>\"1\""},"geometry":{"type":"Point","coordinates":[123.9140751,10.3508875]}},
{"type":"Feature","properties":{"osm_id":"13800437307","name":null,"address":null,"place":null,"other_tags":"\"amenity\"=>\"clinic\",\"healthcare\"=>\"clinic\""},"geometry":{"type":"Point","coordinates":[123.9016122,10.3122923]}}
]
}
